{
"type": "FeatureCollection",
"name": "SELECT",
"features": [
{ "type": "Feature", "id": "way/1442232408", "properties": { "timestamp": "2025-10-14T21:24:17Z", "version": "1", "changeset": "173294474", "user": "AndresSM30", "uid": "23279192", "access": null, "addr:city": null, "addr:neighbourhood": null, "addr:postcode": null, "addr:state": null, "addr:street": null, "admin_level": null, "alt_name": null, "amenity": null, "architect": null, "bicycle": null, "boundary": null, "INEGI:MUNID": null, "brand": null, "brand:wikidata": null, "bridge": null, "building": null, "building:levels": null, "crossing": null, "crossing:markings": null, "fast_food": null, "foot": null, "footway": null, "grades": null, "height": null, "highway": null, "horse": null, "image": null, "incline": null, "internet_access": null, "internet_access:fee": null, "lanes": null, "layer": null, "leisure": "sports_centre", "lit": null, "motor_vehicle": null, "name": "Domo", "office": null, "official_name": null, "oneway": null, "opening_hours": null, "operator": null, "operator:type": null, "parking": null, "phone": null, "population": null, "population:date": null, "power": null, "railway": null, "ref": null, "service": null, "shop": null, "source": null, "source:population": null, "sport": null, "surface": null, "tourism": null, "type": null, "website": null, "wheelchair": null, "width": null, "wikidata": null, "wikipedia": null, "classification": "Instalaciones Deportivas" }, "geometry": { "type": "MultiPolygon", "coordinates": [ [ [ [ -94.5579386, 18.0061735 ], [ -94.5579752, 18.0059629 ], [ -94.5574922, 18.0058655 ], [ -94.5575251, 18.0061735 ], [ -94.5579386, 18.0061735 ] ] ] ] } },
{ "type": "Feature", "id": "node/13139673259", "properties": { "timestamp": "2025-09-12T18:31:44Z", "version": "1", "changeset": "171845725", "user": "AndresSM30", "uid": "23279192", "access": null, "addr:city": null, "addr:neighbourhood": null, "addr:postcode": null, "addr:state": null, "addr:street": null, "admin_level": null, "alt_name": null, "amenity": null, "architect": null, "bicycle": null, "boundary": null, "INEGI:MUNID": null, "brand": null, "brand:wikidata": null, "bridge": null, "building": null, "building:levels": null, "crossing": null, "crossing:markings": null, "fast_food": null, "foot": null, "footway": null, "grades": null, "height": null, "highway": null, "horse": null, "image": null, "incline": null, "internet_access": null, "internet_access:fee": null, "lanes": null, "layer": null, "leisure": "sports_centre", "lit": null, "motor_vehicle": null, "name": "Domo", "office": null, "official_name": null, "oneway": null, "opening_hours": null, "operator": null, "operator:type": null, "parking": null, "phone": null, "population": null, "population:date": null, "power": null, "railway": null, "ref": null, "service": null, "shop": null, "source": null, "source:population": null, "sport": null, "surface": null, "tourism": null, "type": null, "website": null, "wheelchair": null, "width": null, "wikidata": null, "wikipedia": null, "classification": "Instalaciones Deportivas" }, "geometry": { "type": "Point", "coordinates": [ -94.5576709, 18.0060325 ] } },
{ "type": "Feature", "id": "way/1434394328", "properties": { "timestamp": "2025-09-30T15:11:48Z", "version": "1", "changeset": "172665393", "user": "TecNM campus Minatitlán", "uid": "23257776", "access": null, "addr:city": "Minatitlán", "addr:neighbourhood": null, "addr:postcode": "96848", "addr:state": "Ver", "addr:street": "Boulevard Instituto Tecnológico (Carretera Transístmica)", "admin_level": null, "alt_name": null, "amenity": null, "architect": null, "bicycle": null, "boundary": null, "INEGI:MUNID": null, "brand": null, "brand:wikidata": null, "bridge": null, "building": "college", "building:levels": "1", "crossing": null, "crossing:markings": null, "fast_food": null, "foot": null, "footway": null, "grades": null, "height": "3", "highway": null, "horse": null, "image": null, "incline": null, "internet_access": null, "internet_access:fee": null, "lanes": null, "layer": "1", "leisure": null, "lit": null, "motor_vehicle": null, "name": "Edificio A", "office": null, "official_name": null, "oneway": null, "opening_hours": null, "operator": null, "operator:type": null, "parking": null, "phone": null, "population": null, "population:date": null, "power": null, "railway": null, "ref": null, "service": null, "shop": null, "source": null, "source:population": null, "sport": null, "surface": null, "tourism": null, "type": null, "website": null, "wheelchair": null, "width": null, "wikidata": null, "wikipedia": null, "classification": "Aulas" }, "geometry": { "type": "MultiPolygon", "coordinates": [ [ [ [ -94.5555573, 18.0056988 ], [ -94.5555583, 18.0056304 ], [ -94.5555573, 18.0055845 ], [ -94.5552133, 18.0055815 ], [ -94.5552163, 18.0056988 ], [ -94.5555573, 18.0056988 ] ] ] ] } },
{ "type": "Feature", "id": "node/13139673294", "properties": { "timestamp": "2025-09-12T18:31:44Z", "version": "1", "changeset": "171845725", "user": "AndresSM30", "uid": "23279192", "access": null, "addr:city": null, "addr:neighbourhood": null, "addr:postcode": null, "addr:state": null, "addr:street": null, "admin_level": null, "alt_name": null, "amenity": "school", "architect": null, "bicycle": null, "boundary": null, "INEGI:MUNID": null, "brand": null, "brand:wikidata": null, "bridge": null, "building": null, "building:levels": null, "crossing": null, "crossing:markings": null, "fast_food": null, "foot": null, "footway": null, "grades": null, "height": null, "highway": null, "horse": null, "image": null, "incline": null, "internet_access": null, "internet_access:fee": null, "lanes": null, "layer": null, "leisure": null, "lit": null, "motor_vehicle": null, "name": "Edificio A", "office": null, "official_name": null, "oneway": null, "opening_hours": null, "operator": null, "operator:type": null, "parking": null, "phone": null, "population": null, "population:date": null, "power": null, "railway": null, "ref": null, "service": null, "shop": null, "source": null, "source:population": null, "sport": null, "surface": null, "tourism": null, "type": null, "website": null, "wheelchair": null, "width": null, "wikidata": null, "wikipedia": null, "classification": "Aulas" }, "geometry": { "type": "Point", "coordinates": [ -94.5553636, 18.0056457 ] } },
{ "type": "Feature", "id": "node/13139673288", "properties": { "timestamp": "2025-09-12T18:31:44Z", "version": "1", "changeset": "171845725", "user": "AndresSM30", "uid": "23279192", "access": null, "addr:city": null, "addr:neighbourhood": null, "addr:postcode": null, "addr:state": null, "addr:street": null, "admin_level": null, "alt_name": null, "amenity": "school", "architect": null, "bicycle": null, "boundary": null, "INEGI:MUNID": null, "brand": null, "brand:wikidata": null, "bridge": null, "building": null, "building:levels": null, "crossing": null, "crossing:markings": null, "fast_food": null, "foot": null, "footway": null, "grades": null, "height": null, "highway": null, "horse": null, "image": null, "incline": null, "internet_access": null, "internet_access:fee": null, "lanes": null, "layer": null, "leisure": null, "lit": null, "motor_vehicle": null, "name": "Edificio AC", "office": null, "official_name": null, "oneway": null, "opening_hours": null, "operator": null, "operator:type": null, "parking": null, "phone": null, "population": null, "population:date": null, "power": null, "railway": null, "ref": null, "service": null, "shop": null, "source": null, "source:population": null, "sport": null, "surface": null, "tourism": null, "type": null, "website": null, "wheelchair": null, "width": null, "wikidata": null, "wikipedia": null, "classification": "Aulas" }, "geometry": { "type": "Point", "coordinates": [ -94.556393, 18.0050462 ] } },
{ "type": "Feature", "id": "way/1434248967", "properties": { "timestamp": "2025-09-30T03:24:35Z", "version": "2", "changeset": "172639812", "user": "TecNM campus Minatitlán", "uid": "23257776", "access": null, "addr:city": "Minatitlán", "addr:neighbourhood": null, "addr:postcode": "96848", "addr:state": "Ver", "addr:street": "Boulevard Instituto Tecnológico (Carretera Transístmica)", "admin_level": null, "alt_name": null, "amenity": null, "architect": null, "bicycle": null, "boundary": null, "INEGI:MUNID": null, "brand": null, "brand:wikidata": null, "bridge": null, "building": "school", "building:levels": "1", "crossing": null, "crossing:markings": null, "fast_food": null, "foot": null, "footway": null, "grades": null, "height": "3.5", "highway": null, "horse": null, "image": null, "incline": null, "internet_access": null, "internet_access:fee": null, "lanes": null, "layer": null, "leisure": null, "lit": null, "motor_vehicle": null, "name": "Edificio ACA", "office": null, "official_name": null, "oneway": null, "opening_hours": null, "operator": null, "operator:type": null, "parking": null, "phone": null, "population": null, "population:date": null, "power": null, "railway": null, "ref": null, "service": null, "shop": null, "source": null, "source:population": null, "sport": null, "surface": null, "tourism": null, "type": null, "website": null, "wheelchair": null, "width": null, "wikidata": null, "wikipedia": null, "classification": "Servicios" }, "geometry": { "type": "MultiPolygon", "coordinates": [ [ [ [ -94.556034, 18.0050135 ], [ -94.5560323, 18.0048992 ], [ -94.5557528, 18.0048987 ], [ -94.5557564, 18.0050116 ], [ -94.5558712, 18.0050124 ], [ -94.556034, 18.0050135 ] ] ] ] } },
{ "type": "Feature", "id": "node/13139673292", "properties": { "timestamp": "2025-09-12T18:31:44Z", "version": "1", "changeset": "171845725", "user": "AndresSM30", "uid": "23279192", "access": null, "addr:city": null, "addr:neighbourhood": null, "addr:postcode": null, "addr:state": null, "addr:street": null, "admin_level": null, "alt_name": null, "amenity": null, "architect": null, "bicycle": null, "boundary": null, "INEGI:MUNID": null, "brand": null, "brand:wikidata": null, "bridge": null, "building": null, "building:levels": null, "crossing": null, "crossing:markings": null, "fast_food": null, "foot": null, "footway": null, "grades": null, "height": null, "highway": null, "horse": null, "image": null, "incline": null, "internet_access": null, "internet_access:fee": null, "lanes": null, "layer": null, "leisure": null, "lit": null, "motor_vehicle": null, "name": "Edificio ACA", "office": "educational_institution", "official_name": null, "oneway": null, "opening_hours": null, "operator": null, "operator:type": null, "parking": null, "phone": null, "population": null, "population:date": null, "power": null, "railway": null, "ref": null, "service": null, "shop": null, "source": null, "source:population": null, "sport": null, "surface": null, "tourism": null, "type": null, "website": null, "wheelchair": null, "width": null, "wikidata": null, "wikipedia": null, "classification": "Servicios" }, "geometry": { "type": "Point", "coordinates": [ -94.5558862, 18.0049462 ] } },
{ "type": "Feature", "id": "way/1434248966", "properties": { "timestamp": "2025-09-30T02:40:57Z", "version": "1", "changeset": "172639095", "user": "TecNM campus Minatitlán", "uid": "23257776", "access": null, "addr:city": "Minatitlán", "addr:neighbourhood": null, "addr:postcode": "96848", "addr:state": "Ver", "addr:street": "Boulevard Instituto Tecnológico (Carretera Transístmica)", "admin_level": null, "alt_name": null, "amenity": null, "architect": "Moderna Funcional", "bicycle": null, "boundary": null, "INEGI:MUNID": null, "brand": null, "brand:wikidata": null, "bridge": null, "building": "school", "building:levels": "2", "crossing": null, "crossing:markings": null, "fast_food": null, "foot": null, "footway": null, "grades": null, "height": "8", "highway": null, "horse": null, "image": null, "incline": null, "internet_access": null, "internet_access:fee": null, "lanes": null, "layer": null, "leisure": null, "lit": null, "motor_vehicle": null, "name": "Edificio ACB", "office": null, "official_name": null, "oneway": null, "opening_hours": null, "operator": null, "operator:type": null, "parking": null, "phone": null, "population": null, "population:date": null, "power": null, "railway": null, "ref": null, "service": null, "shop": null, "source": null, "source:population": null, "sport": null, "surface": null, "tourism": null, "type": null, "website": null, "wheelchair": null, "width": null, "wikidata": null, "wikipedia": null, "classification": "Servicios" }, "geometry": { "type": "MultiPolygon", "coordinates": [ [ [ [ -94.5557474, 18.0052702 ], [ -94.5560408, 18.0052662 ], [ -94.5560346, 18.0050907 ], [ -94.5557475, 18.0050915 ], [ -94.5557474, 18.0052702 ] ] ] ] } },
{ "type": "Feature", "id": "node/13139673291", "properties": { "timestamp": "2025-09-30T02:40:57Z", "version": "2", "changeset": "172639095", "user": "TecNM campus Minatitlán", "uid": "23257776", "access": null, "addr:city": "Minatitlán", "addr:neighbourhood": null, "addr:postcode": "96848", "addr:state": "Ver", "addr:street": "Boulevard Instituto Tecnológico (Carretera Transístmica)", "admin_level": null, "alt_name": null, "amenity": null, "architect": null, "bicycle": null, "boundary": null, "INEGI:MUNID": null, "brand": null, "brand:wikidata": null, "bridge": null, "building": null, "building:levels": null, "crossing": null, "crossing:markings": null, "fast_food": null, "foot": null, "footway": null, "grades": null, "height": null, "highway": null, "horse": null, "image": null, "incline": null, "internet_access": null, "internet_access:fee": null, "lanes": null, "layer": null, "leisure": null, "lit": null, "motor_vehicle": null, "name": "Edificio ACB", "office": "educational_institution", "official_name": null, "oneway": null, "opening_hours": "Mo-Fr 09:00-18:00", "operator": null, "operator:type": null, "parking": null, "phone": "9222224345", "population": null, "population:date": null, "power": null, "railway": null, "ref": null, "service": null, "shop": null, "source": null, "source:population": null, "sport": null, "surface": null, "tourism": null, "type": null, "website": "https://minatitlan.tecnm.mx/", "wheelchair": null, "width": null, "wikidata": null, "wikipedia": null, "classification": "Servicios" }, "geometry": { "type": "Point", "coordinates": [ -94.5558909, 18.005178 ] } },
{ "type": "Feature", "id": "way/1434248970", "properties": { "timestamp": "2025-09-30T02:40:57Z", "version": "1", "changeset": "172639095", "user": "TecNM campus Minatitlán", "uid": "23257776", "access": null, "addr:city": "Minatitlán", "addr:neighbourhood": null, "addr:postcode": "96848", "addr:state": "Ver", "addr:street": "Boulevard Instituto Tecnológico (Carretera Transístmica)", "admin_level": null, "alt_name": null, "amenity": null, "architect": null, "bicycle": null, "boundary": null, "INEGI:MUNID": null, "brand": null, "brand:wikidata": null, "bridge": null, "building": "school", "building:levels": "1", "crossing": null, "crossing:markings": null, "fast_food": null, "foot": null, "footway": null, "grades": null, "height": "3", "highway": null, "horse": null, "image": null, "incline": null, "internet_access": null, "internet_access:fee": null, "lanes": null, "layer": null, "leisure": null, "lit": null, "motor_vehicle": null, "name": "Edificio B", "office": null, "official_name": null, "oneway": null, "opening_hours": null, "operator": null, "operator:type": null, "parking": null, "phone": null, "population": null, "population:date": null, "power": null, "railway": null, "ref": null, "service": null, "shop": null, "source": null, "source:population": null, "sport": null, "surface": null, "tourism": null, "type": null, "website": null, "wheelchair": null, "width": null, "wikidata": null, "wikipedia": null, "classification": "Aulas" }, "geometry": { "type": "MultiPolygon", "coordinates": [ [ [ [ -94.5558462, 18.0054933 ], [ -94.5558476, 18.0053907 ], [ -94.5558453, 18.0053718 ], [ -94.5554402, 18.0053718 ], [ -94.555439, 18.0054917 ], [ -94.5558462, 18.0054933 ] ] ] ] } },
{ "type": "Feature", "id": "node/13139673293", "properties": { "timestamp": "2025-09-12T18:31:44Z", "version": "1", "changeset": "171845725", "user": "AndresSM30", "uid": "23279192", "access": null, "addr:city": null, "addr:neighbourhood": null, "addr:postcode": null, "addr:state": null, "addr:street": null, "admin_level": null, "alt_name": null, "amenity": "school", "architect": null, "bicycle": null, "boundary": null, "INEGI:MUNID": null, "brand": null, "brand:wikidata": null, "bridge": null, "building": null, "building:levels": null, "crossing": null, "crossing:markings": null, "fast_food": null, "foot": null, "footway": null, "grades": null, "height": null, "highway": null, "horse": null, "image": null, "incline": null, "internet_access": null, "internet_access:fee": null, "lanes": null, "layer": null, "leisure": null, "lit": null, "motor_vehicle": null, "name": "Edificio B", "office": null, "official_name": null, "oneway": null, "opening_hours": null, "operator": null, "operator:type": null, "parking": null, "phone": null, "population": null, "population:date": null, "power": null, "railway": null, "ref": null, "service": null, "shop": null, "source": null, "source:population": null, "sport": null, "surface": null, "tourism": null, "type": null, "website": null, "wheelchair": null, "width": null, "wikidata": null, "wikipedia": null, "classification": "Aulas" }, "geometry": { "type": "Point", "coordinates": [ -94.5556422, 18.005425 ] } },
{ "type": "Feature", "id": "way/1434260881", "properties": { "timestamp": "2025-09-30T03:24:35Z", "version": "1", "changeset": "172639812", "user": "TecNM campus Minatitlán", "uid": "23257776", "access": null, "addr:city": "Minatitlán", "addr:neighbourhood": null, "addr:postcode": "96848", "addr:state": "Ver", "addr:street": "Boulevard Instituto Tecnológico (Carretera Transístmica)", "admin_level": null, "alt_name": null, "amenity": null, "architect": null, "bicycle": null, "boundary": null, "INEGI:MUNID": null, "brand": null, "brand:wikidata": null, "bridge": null, "building": "college", "building:levels": "1", "crossing": null, "crossing:markings": null, "fast_food": null, "foot": null, "footway": null, "grades": null, "height": "3", "highway": null, "horse": null, "image": null, "incline": null, "internet_access": null, "internet_access:fee": null, "lanes": null, "layer": null, "leisure": null, "lit": null, "motor_vehicle": null, "name": "Edificio C", "office": null, "official_name": null, "oneway": null, "opening_hours": null, "operator": null, "operator:type": null, "parking": null, "phone": null, "population": null, "population:date": null, "power": null, "railway": null, "ref": null, "service": null, "shop": null, "source": null, "source:population": null, "sport": null, "surface": null, "tourism": null, "type": null, "website": null, "wheelchair": null, "width": null, "wikidata": null, "wikipedia": null, "classification": "Aulas" }, "geometry": { "type": "MultiPolygon", "coordinates": [ [ [ [ -94.5566966, 18.0053413 ], [ -94.5566954, 18.0052269 ], [ -94.5561922, 18.0052302 ], [ -94.5561946, 18.0053402 ], [ -94.5566966, 18.0053413 ] ] ] ] } },
{ "type": "Feature", "id": "node/13139673279", "properties": { "timestamp": "2025-09-12T18:31:44Z", "version": "1", "changeset": "171845725", "user": "AndresSM30", "uid": "23279192", "access": null, "addr:city": null, "addr:neighbourhood": null, "addr:postcode": null, "addr:state": null, "addr:street": null, "admin_level": null, "alt_name": null, "amenity": "school", "architect": null, "bicycle": null, "boundary": null, "INEGI:MUNID": null, "brand": null, "brand:wikidata": null, "bridge": null, "building": null, "building:levels": null, "crossing": null, "crossing:markings": null, "fast_food": null, "foot": null, "footway": null, "grades": null, "height": null, "highway": null, "horse": null, "image": null, "incline": null, "internet_access": null, "internet_access:fee": null, "lanes": null, "layer": null, "leisure": null, "lit": null, "motor_vehicle": null, "name": "Edificio C", "office": null, "official_name": null, "oneway": null, "opening_hours": null, "operator": null, "operator:type": null, "parking": null, "phone": null, "population": null, "population:date": null, "power": null, "railway": null, "ref": null, "service": null, "shop": null, "source": null, "source:population": null, "sport": null, "surface": null, "tourism": null, "type": null, "website": null, "wheelchair": null, "width": null, "wikidata": null, "wikipedia": null, "classification": "Aulas" }, "geometry": { "type": "Point", "coordinates": [ -94.5564048, 18.0052848 ] } },
{ "type": "Feature", "id": "node/13139673266", "properties": { "timestamp": "2025-09-12T18:31:44Z", "version": "1", "changeset": "171845725", "user": "AndresSM30", "uid": "23279192", "access": null, "addr:city": null, "addr:neighbourhood": null, "addr:postcode": null, "addr:state": null, "addr:street": null, "admin_level": null, "alt_name": null, "amenity": "school", "architect": null, "bicycle": null, "boundary": null, "INEGI:MUNID": null, "brand": null, "brand:wikidata": null, "bridge": null, "building": null, "building:levels": null, "crossing": null, "crossing:markings": null, "fast_food": null, "foot": null, "footway": null, "grades": null, "height": null, "highway": null, "horse": null, "image": null, "incline": null, "internet_access": null, "internet_access:fee": null, "lanes": null, "layer": null, "leisure": null, "lit": null, "motor_vehicle": null, "name": "Edificio CECT", "office": null, "official_name": null, "oneway": null, "opening_hours": null, "operator": null, "operator:type": null, "parking": null, "phone": null, "population": null, "population:date": null, "power": null, "railway": null, "ref": null, "service": null, "shop": null, "source": null, "source:population": null, "sport": null, "surface": null, "tourism": null, "type": null, "website": null, "wheelchair": null, "width": null, "wikidata": null, "wikipedia": null, "classification": "Aulas" }, "geometry": { "type": "Point", "coordinates": [ -94.5574421, 18.0071819 ] } },
{ "type": "Feature", "id": "node/13139673277", "properties": { "timestamp": "2025-09-12T18:31:44Z", "version": "1", "changeset": "171845725", "user": "AndresSM30", "uid": "23279192", "access": null, "addr:city": null, "addr:neighbourhood": null, "addr:postcode": null, "addr:state": null, "addr:street": null, "admin_level": null, "alt_name": null, "amenity": "language_school", "architect": null, "bicycle": null, "boundary": null, "INEGI:MUNID": null, "brand": null, "brand:wikidata": null, "bridge": null, "building": null, "building:levels": null, "crossing": null, "crossing:markings": null, "fast_food": null, "foot": null, "footway": null, "grades": null, "height": null, "highway": null, "horse": null, "image": null, "incline": null, "internet_access": null, "internet_access:fee": null, "lanes": null, "layer": null, "leisure": null, "lit": null, "motor_vehicle": null, "name": "Edificio CI", "office": null, "official_name": null, "oneway": null, "opening_hours": null, "operator": null, "operator:type": null, "parking": null, "phone": null, "population": null, "population:date": null, "power": null, "railway": null, "ref": null, "service": null, "shop": null, "source": null, "source:population": null, "sport": null, "surface": null, "tourism": null, "type": null, "website": null, "wheelchair": null, "width": null, "wikidata": null, "wikipedia": null, "classification": "Aulas" }, "geometry": { "type": "Point", "coordinates": [ -94.5567909, 18.0054216 ] } },
{ "type": "Feature", "id": "node/13139673278", "properties": { "timestamp": "2025-09-12T18:31:44Z", "version": "1", "changeset": "171845725", "user": "AndresSM30", "uid": "23279192", "access": null, "addr:city": null, "addr:neighbourhood": null, "addr:postcode": null, "addr:state": null, "addr:street": null, "admin_level": null, "alt_name": null, "amenity": "school", "architect": null, "bicycle": null, "boundary": null, "INEGI:MUNID": null, "brand": null, "brand:wikidata": null, "bridge": null, "building": null, "building:levels": null, "crossing": null, "crossing:markings": null, "fast_food": null, "foot": null, "footway": null, "grades": null, "height": null, "highway": null, "horse": null, "image": null, "incline": null, "internet_access": null, "internet_access:fee": null, "lanes": null, "layer": null, "leisure": null, "lit": null, "motor_vehicle": null, "name": "Edificio D", "office": null, "official_name": null, "oneway": null, "opening_hours": null, "operator": null, "operator:type": null, "parking": null, "phone": null, "population": null, "population:date": null, "power": null, "railway": null, "ref": null, "service": null, "shop": null, "source": null, "source:population": null, "sport": null, "surface": null, "tourism": null, "type": null, "website": null, "wheelchair": null, "width": null, "wikidata": null, "wikipedia": null, "classification": "Aulas" }, "geometry": { "type": "Point", "coordinates": [ -94.5563057, 18.0055249 ] } },
{ "type": "Feature", "id": "node/13139673281", "properties": { "timestamp": "2025-09-12T18:31:44Z", "version": "1", "changeset": "171845725", "user": "AndresSM30", "uid": "23279192", "access": null, "addr:city": null, "addr:neighbourhood": null, "addr:postcode": null, "addr:state": null, "addr:street": null, "admin_level": null, "alt_name": null, "amenity": "school", "architect": null, "bicycle": null, "boundary": null, "INEGI:MUNID": null, "brand": null, "brand:wikidata": null, "bridge": null, "building": null, "building:levels": null, "crossing": null, "crossing:markings": null, "fast_food": null, "foot": null, "footway": null, "grades": null, "height": null, "highway": null, "horse": null, "image": null, "incline": null, "internet_access": null, "internet_access:fee": null, "lanes": null, "layer": null, "leisure": null, "lit": null, "motor_vehicle": null, "name": "Edificio DPI", "office": null, "official_name": null, "oneway": null, "opening_hours": null, "operator": null, "operator:type": null, "parking": null, "phone": null, "population": null, "population:date": null, "power": null, "railway": null, "ref": null, "service": null, "shop": null, "source": null, "source:population": null, "sport": null, "surface": null, "tourism": null, "type": null, "website": null, "wheelchair": null, "width": null, "wikidata": null, "wikipedia": null, "classification": "Aulas" }, "geometry": { "type": "Point", "coordinates": [ -94.5562137, 18.0060021 ] } },
{ "type": "Feature", "id": "node/13139673276", "properties": { "timestamp": "2025-09-12T18:31:44Z", "version": "1", "changeset": "171845725", "user": "AndresSM30", "uid": "23279192", "access": null, "addr:city": null, "addr:neighbourhood": null, "addr:postcode": null, "addr:state": null, "addr:street": null, "admin_level": null, "alt_name": null, "amenity": "school", "architect": null, "bicycle": null, "boundary": null, "INEGI:MUNID": null, "brand": null, "brand:wikidata": null, "bridge": null, "building": null, "building:levels": null, "crossing": null, "crossing:markings": null, "fast_food": null, "foot": null, "footway": null, "grades": null, "height": null, "highway": null, "horse": null, "image": null, "incline": null, "internet_access": null, "internet_access:fee": null, "lanes": null, "layer": null, "leisure": null, "lit": null, "motor_vehicle": null, "name": "Edificio E", "office": null, "official_name": null, "oneway": null, "opening_hours": null, "operator": null, "operator:type": null, "parking": null, "phone": null, "population": null, "population:date": null, "power": null, "railway": null, "ref": null, "service": null, "shop": null, "source": null, "source:population": null, "sport": null, "surface": null, "tourism": null, "type": null, "website": null, "wheelchair": null, "width": null, "wikidata": null, "wikipedia": null, "classification": "Aulas" }, "geometry": { "type": "Point", "coordinates": [ -94.5567752, 18.0055757 ] } },
{ "type": "Feature", "id": "way/1434402994", "properties": { "timestamp": "2025-09-30T15:53:11Z", "version": "1", "changeset": "172667502", "user": "TecNM campus Minatitlán", "uid": "23257776", "access": null, "addr:city": "Minatitlán", "addr:neighbourhood": null, "addr:postcode": "96848", "addr:state": "Ver", "addr:street": "Boulevard Instituto Tecnológico (Carretera Transístmica)", "admin_level": null, "alt_name": null, "amenity": null, "architect": null, "bicycle": null, "boundary": null, "INEGI:MUNID": null, "brand": null, "brand:wikidata": null, "bridge": null, "building": "college", "building:levels": "2", "crossing": null, "crossing:markings": null, "fast_food": null, "foot": null, "footway": null, "grades": null, "height": "6", "highway": null, "horse": null, "image": null, "incline": null, "internet_access": null, "internet_access:fee": null, "lanes": null, "layer": "1", "leisure": null, "lit": null, "motor_vehicle": null, "name": "Edificio F", "office": null, "official_name": null, "oneway": null, "opening_hours": null, "operator": null, "operator:type": null, "parking": null, "phone": null, "population": null, "population:date": null, "power": null, "railway": null, "ref": null, "service": null, "shop": null, "source": null, "source:population": null, "sport": null, "surface": null, "tourism": null, "type": null, "website": null, "wheelchair": null, "width": null, "wikidata": null, "wikipedia": null, "classification": "Aulas" }, "geometry": { "type": "MultiPolygon", "coordinates": [ [ [ [ -94.5568296, 18.0058388 ], [ -94.5568282, 18.0057315 ], [ -94.5564196, 18.0057289 ], [ -94.5564196, 18.0058375 ], [ -94.5568296, 18.0058388 ] ] ] ] } },
{ "type": "Feature", "id": "node/13139673280", "properties": { "timestamp": "2025-09-12T18:31:44Z", "version": "1", "changeset": "171845725", "user": "AndresSM30", "uid": "23279192", "access": null, "addr:city": null, "addr:neighbourhood": null, "addr:postcode": null, "addr:state": null, "addr:street": null, "admin_level": null, "alt_name": null, "amenity": "school", "architect": null, "bicycle": null, "boundary": null, "INEGI:MUNID": null, "brand": null, "brand:wikidata": null, "bridge": null, "building": null, "building:levels": null, "crossing": null, "crossing:markings": null, "fast_food": null, "foot": null, "footway": null, "grades": null, "height": null, "highway": null, "horse": null, "image": null, "incline": null, "internet_access": null, "internet_access:fee": null, "lanes": null, "layer": null, "leisure": null, "lit": null, "motor_vehicle": null, "name": "Edificio F", "office": null, "official_name": null, "oneway": null, "opening_hours": null, "operator": null, "operator:type": null, "parking": null, "phone": null, "population": null, "population:date": null, "power": null, "railway": null, "ref": null, "service": null, "shop": null, "source": null, "source:population": null, "sport": null, "surface": null, "tourism": null, "type": null, "website": null, "wheelchair": null, "width": null, "wikidata": null, "wikipedia": null, "classification": "Aulas" }, "geometry": { "type": "Point", "coordinates": [ -94.5565833, 18.0057926 ] } },
{ "type": "Feature", "id": "node/13139673263", "properties": { "timestamp": "2025-09-12T18:31:44Z", "version": "1", "changeset": "171845725", "user": "AndresSM30", "uid": "23279192", "access": null, "addr:city": null, "addr:neighbourhood": null, "addr:postcode": null, "addr:state": null, "addr:street": null, "admin_level": null, "alt_name": null, "amenity": "school", "architect": null, "bicycle": null, "boundary": null, "INEGI:MUNID": null, "brand": null, "brand:wikidata": null, "bridge": null, "building": null, "building:levels": null, "crossing": null, "crossing:markings": null, "fast_food": null, "foot": null, "footway": null, "grades": null, "height": null, "highway": null, "horse": null, "image": null, "incline": null, "internet_access": null, "internet_access:fee": null, "lanes": null, "layer": null, "leisure": null, "lit": null, "motor_vehicle": null, "name": "Edificio G", "office": null, "official_name": null, "oneway": null, "opening_hours": null, "operator": null, "operator:type": null, "parking": null, "phone": null, "population": null, "population:date": null, "power": null, "railway": null, "ref": null, "service": null, "shop": null, "source": null, "source:population": null, "sport": null, "surface": null, "tourism": null, "type": null, "website": null, "wheelchair": null, "width": null, "wikidata": null, "wikipedia": null, "classification": "Aulas" }, "geometry": { "type": "Point", "coordinates": [ -94.5571236, 18.0059792 ] } },
{ "type": "Feature", "id": "way/1434394333", "properties": { "timestamp": "2025-09-30T15:11:48Z", "version": "1", "changeset": "172665393", "user": "TecNM campus Minatitlán", "uid": "23257776", "access": null, "addr:city": "Minatitlán", "addr:neighbourhood": null, "addr:postcode": "96848", "addr:state": "Ver", "addr:street": "Boulevard Instituto Tecnológico (Carretera Transístmica)", "admin_level": null, "alt_name": null, "amenity": null, "architect": null, "bicycle": null, "boundary": null, "INEGI:MUNID": null, "brand": null, "brand:wikidata": null, "bridge": null, "building": "college", "building:levels": "2", "crossing": null, "crossing:markings": null, "fast_food": null, "foot": null, "footway": null, "grades": null, "height": "6", "highway": null, "horse": null, "image": null, "incline": null, "internet_access": null, "internet_access:fee": null, "lanes": null, "layer": null, "leisure": null, "lit": null, "motor_vehicle": null, "name": "Edificio H", "office": null, "official_name": null, "oneway": null, "opening_hours": null, "operator": null, "operator:type": null, "parking": null, "phone": null, "population": null, "population:date": null, "power": null, "railway": null, "ref": null, "service": null, "shop": null, "source": null, "source:population": null, "sport": null, "surface": null, "tourism": null, "type": null, "website": null, "wheelchair": null, "width": null, "wikidata": null, "wikipedia": null, "classification": "Aulas" }, "geometry": { "type": "MultiPolygon", "coordinates": [ [ [ [ -94.5573975, 18.0061736 ], [ -94.5570018, 18.0061736 ], [ -94.5570072, 18.0063076 ], [ -94.5573338, 18.0063066 ], [ -94.5573989, 18.0063063 ], [ -94.5573975, 18.0061736 ] ] ] ] } },
{ "type": "Feature", "id": "node/13139673262", "properties": { "timestamp": "2025-09-30T15:53:11Z", "version": "2", "changeset": "172667502", "user": "TecNM campus Minatitlán", "uid": "23257776", "access": null, "addr:city": "Minatitlán", "addr:neighbourhood": null, "addr:postcode": "96848", "addr:state": "Ver", "addr:street": "Boulevard Instituto Tecnológico (Carretera Transístmica)", "admin_level": null, "alt_name": null, "amenity": "school", "architect": null, "bicycle": null, "boundary": null, "INEGI:MUNID": null, "brand": null, "brand:wikidata": null, "bridge": null, "building": null, "building:levels": null, "crossing": null, "crossing:markings": null, "fast_food": null, "foot": null, "footway": null, "grades": "2", "height": null, "highway": null, "horse": null, "image": null, "incline": null, "internet_access": null, "internet_access:fee": null, "lanes": null, "layer": null, "leisure": null, "lit": null, "motor_vehicle": null, "name": "Edificio H", "office": null, "official_name": null, "oneway": null, "opening_hours": null, "operator": "Aulas de Clases", "operator:type": "clases", "parking": null, "phone": null, "population": null, "population:date": null, "power": null, "railway": null, "ref": null, "service": null, "shop": null, "source": null, "source:population": null, "sport": null, "surface": null, "tourism": null, "type": null, "website": null, "wheelchair": null, "width": null, "wikidata": null, "wikipedia": null, "classification": "Aulas" }, "geometry": { "type": "Point", "coordinates": [ -94.5571291, 18.0062283 ] } },
{ "type": "Feature", "id": "node/13139673274", "properties": { "timestamp": "2025-09-12T18:31:44Z", "version": "1", "changeset": "171845725", "user": "AndresSM30", "uid": "23279192", "access": null, "addr:city": null, "addr:neighbourhood": null, "addr:postcode": null, "addr:state": null, "addr:street": null, "admin_level": null, "alt_name": null, "amenity": "school", "architect": null, "bicycle": null, "boundary": null, "INEGI:MUNID": null, "brand": null, "brand:wikidata": null, "bridge": null, "building": null, "building:levels": null, "crossing": null, "crossing:markings": null, "fast_food": null, "foot": null, "footway": null, "grades": null, "height": null, "highway": null, "horse": null, "image": null, "incline": null, "internet_access": null, "internet_access:fee": null, "lanes": null, "layer": null, "leisure": null, "lit": null, "motor_vehicle": null, "name": "Edificio I", "office": null, "official_name": null, "oneway": null, "opening_hours": null, "operator": null, "operator:type": null, "parking": null, "phone": null, "population": null, "population:date": null, "power": null, "railway": null, "ref": null, "service": null, "shop": null, "source": null, "source:population": null, "sport": null, "surface": null, "tourism": null, "type": null, "website": null, "wheelchair": null, "width": null, "wikidata": null, "wikipedia": null, "classification": "Aulas" }, "geometry": { "type": "Point", "coordinates": [ -94.556756, 18.0069246 ] } },
{ "type": "Feature", "id": "node/13139673273", "properties": { "timestamp": "2025-09-12T18:31:44Z", "version": "1", "changeset": "171845725", "user": "AndresSM30", "uid": "23279192", "access": null, "addr:city": null, "addr:neighbourhood": null, "addr:postcode": null, "addr:state": null, "addr:street": null, "admin_level": null, "alt_name": null, "amenity": "school", "architect": null, "bicycle": null, "boundary": null, "INEGI:MUNID": null, "brand": null, "brand:wikidata": null, "bridge": null, "building": null, "building:levels": null, "crossing": null, "crossing:markings": null, "fast_food": null, "foot": null, "footway": null, "grades": null, "height": null, "highway": null, "horse": null, "image": null, "incline": null, "internet_access": null, "internet_access:fee": null, "lanes": null, "layer": null, "leisure": null, "lit": null, "motor_vehicle": null, "name": "Edificio J", "office": null, "official_name": null, "oneway": null, "opening_hours": null, "operator": null, "operator:type": null, "parking": null, "phone": null, "population": null, "population:date": null, "power": null, "railway": null, "ref": null, "service": null, "shop": null, "source": null, "source:population": null, "sport": null, "surface": null, "tourism": null, "type": null, "website": null, "wheelchair": null, "width": null, "wikidata": null, "wikipedia": null, "classification": "Aulas" }, "geometry": { "type": "Point", "coordinates": [ -94.5566346, 18.0067243 ] } },
{ "type": "Feature", "id": "node/13139673298", "properties": { "timestamp": "2025-09-12T18:31:44Z", "version": "1", "changeset": "171845725", "user": "AndresSM30", "uid": "23279192", "access": null, "addr:city": null, "addr:neighbourhood": null, "addr:postcode": null, "addr:state": null, "addr:street": null, "admin_level": null, "alt_name": null, "amenity": "school", "architect": null, "bicycle": null, "boundary": null, "INEGI:MUNID": null, "brand": null, "brand:wikidata": null, "bridge": null, "building": null, "building:levels": null, "crossing": null, "crossing:markings": null, "fast_food": null, "foot": null, "footway": null, "grades": null, "height": null, "highway": null, "horse": null, "image": null, "incline": null, "internet_access": null, "internet_access:fee": null, "lanes": null, "layer": null, "leisure": null, "lit": null, "motor_vehicle": null, "name": "Edificio LAI", "office": null, "official_name": null, "oneway": null, "opening_hours": null, "operator": null, "operator:type": null, "parking": null, "phone": null, "population": null, "population:date": null, "power": null, "railway": null, "ref": null, "service": null, "shop": null, "source": null, "source:population": null, "sport": null, "surface": null, "tourism": null, "type": null, "website": null, "wheelchair": null, "width": null, "wikidata": null, "wikipedia": null, "classification": "Aulas" }, "geometry": { "type": "Point", "coordinates": [ -94.5562375, 18.006642 ] } },
{ "type": "Feature", "id": "node/13139673296", "properties": { "timestamp": "2025-09-12T18:31:44Z", "version": "1", "changeset": "171845725", "user": "AndresSM30", "uid": "23279192", "access": null, "addr:city": null, "addr:neighbourhood": null, "addr:postcode": null, "addr:state": null, "addr:street": null, "admin_level": null, "alt_name": null, "amenity": "research_institute", "architect": null, "bicycle": null, "boundary": null, "INEGI:MUNID": null, "brand": null, "brand:wikidata": null, "bridge": null, "building": null, "building:levels": null, "crossing": null, "crossing:markings": null, "fast_food": null, "foot": null, "footway": null, "grades": null, "height": null, "highway": null, "horse": null, "image": null, "incline": null, "internet_access": null, "internet_access:fee": null, "lanes": null, "layer": null, "leisure": null, "lit": null, "motor_vehicle": null, "name": "Edificio LCI", "office": null, "official_name": null, "oneway": null, "opening_hours": null, "operator": null, "operator:type": null, "parking": null, "phone": null, "population": null, "population:date": null, "power": null, "railway": null, "ref": null, "service": null, "shop": null, "source": null, "source:population": null, "sport": null, "surface": null, "tourism": null, "type": null, "website": null, "wheelchair": null, "width": null, "wikidata": null, "wikipedia": null, "classification": "Laboratorios" }, "geometry": { "type": "Point", "coordinates": [ -94.5553519, 18.006011 ] } },
{ "type": "Feature", "id": "node/13139673265", "properties": { "timestamp": "2025-10-14T21:24:17Z", "version": "2", "changeset": "173294474", "user": "AndresSM30", "uid": "23279192", "access": null, "addr:city": null, "addr:neighbourhood": null, "addr:postcode": null, "addr:state": null, "addr:street": null, "admin_level": null, "alt_name": null, "amenity": "research_institute", "architect": null, "bicycle": null, "boundary": null, "INEGI:MUNID": null, "brand": null, "brand:wikidata": null, "bridge": null, "building": null, "building:levels": null, "crossing": null, "crossing:markings": null, "fast_food": null, "foot": null, "footway": null, "grades": null, "height": null, "highway": null, "horse": null, "image": null, "incline": null, "internet_access": null, "internet_access:fee": null, "lanes": null, "layer": null, "leisure": null, "lit": null, "motor_vehicle": null, "name": "Edificio LIE-1", "office": null, "official_name": null, "oneway": null, "opening_hours": null, "operator": null, "operator:type": null, "parking": null, "phone": null, "population": null, "population:date": null, "power": null, "railway": null, "ref": null, "service": null, "shop": null, "source": null, "source:population": null, "sport": null, "surface": null, "tourism": null, "type": null, "website": null, "wheelchair": null, "width": null, "wikidata": null, "wikipedia": null, "classification": "Laboratorios" }, "geometry": { "type": "Point", "coordinates": [ -94.5574331, 18.0069005 ] } },
{ "type": "Feature", "id": "node/13139673264", "properties": { "timestamp": "2025-09-12T18:31:44Z", "version": "1", "changeset": "171845725", "user": "AndresSM30", "uid": "23279192", "access": null, "addr:city": null, "addr:neighbourhood": null, "addr:postcode": null, "addr:state": null, "addr:street": null, "admin_level": null, "alt_name": null, "amenity": "research_institute", "architect": null, "bicycle": null, "boundary": null, "INEGI:MUNID": null, "brand": null, "brand:wikidata": null, "bridge": null, "building": null, "building:levels": null, "crossing": null, "crossing:markings": null, "fast_food": null, "foot": null, "footway": null, "grades": null, "height": null, "highway": null, "horse": null, "image": null, "incline": null, "internet_access": null, "internet_access:fee": null, "lanes": null, "layer": null, "leisure": null, "lit": null, "motor_vehicle": null, "name": "Edificio LIE-2", "office": null, "official_name": null, "oneway": null, "opening_hours": null, "operator": null, "operator:type": null, "parking": null, "phone": null, "population": null, "population:date": null, "power": null, "railway": null, "ref": null, "service": null, "shop": null, "source": null, "source:population": null, "sport": null, "surface": null, "tourism": null, "type": null, "website": null, "wheelchair": null, "width": null, "wikidata": null, "wikipedia": null, "classification": "Laboratorios" }, "geometry": { "type": "Point", "coordinates": [ -94.557472, 18.00671 ] } },
{ "type": "Feature", "id": "node/13139673297", "properties": { "timestamp": "2025-09-12T18:31:44Z", "version": "1", "changeset": "171845725", "user": "AndresSM30", "uid": "23279192", "access": null, "addr:city": null, "addr:neighbourhood": null, "addr:postcode": null, "addr:state": null, "addr:street": null, "admin_level": null, "alt_name": null, "amenity": "school", "architect": null, "bicycle": null, "boundary": null, "INEGI:MUNID": null, "brand": null, "brand:wikidata": null, "bridge": null, "building": null, "building:levels": null, "crossing": null, "crossing:markings": null, "fast_food": null, "foot": null, "footway": null, "grades": null, "height": null, "highway": null, "horse": null, "image": null, "incline": null, "internet_access": null, "internet_access:fee": null, "lanes": null, "layer": null, "leisure": null, "lit": null, "motor_vehicle": null, "name": "Edificio LIEM", "office": null, "official_name": null, "oneway": null, "opening_hours": null, "operator": null, "operator:type": null, "parking": null, "phone": null, "population": null, "population:date": null, "power": null, "railway": null, "ref": null, "service": null, "shop": null, "source": null, "source:population": null, "sport": null, "surface": null, "tourism": null, "type": null, "website": null, "wheelchair": null, "width": null, "wikidata": null, "wikipedia": null, "classification": "Aulas" }, "geometry": { "type": "Point", "coordinates": [ -94.5557267, 18.0062752 ] } },
{ "type": "Feature", "id": "way/1434394332", "properties": { "timestamp": "2025-09-30T15:11:48Z", "version": "1", "changeset": "172665393", "user": "TecNM campus Minatitlán", "uid": "23257776", "access": null, "addr:city": "Minatitlán", "addr:neighbourhood": "Buena Vista Norte", "addr:postcode": "96848", "addr:state": "Ver", "addr:street": "Boulevard Instituto Tecnológico (Carretera Transístmica)", "admin_level": null, "alt_name": null, "amenity": "research_institute", "architect": null, "bicycle": null, "boundary": null, "INEGI:MUNID": null, "brand": null, "brand:wikidata": null, "bridge": null, "building": null, "building:levels": null, "crossing": null, "crossing:markings": null, "fast_food": null, "foot": null, "footway": null, "grades": null, "height": null, "highway": null, "horse": null, "image": null, "incline": null, "internet_access": "yes", "internet_access:fee": "customers", "lanes": null, "layer": null, "leisure": null, "lit": null, "motor_vehicle": null, "name": "Edificio LIQP", "office": null, "official_name": null, "oneway": null, "opening_hours": null, "operator": "Practicas de Ingenieria Quimica y Ambiental", "operator:type": "university", "parking": null, "phone": null, "population": null, "population:date": null, "power": null, "railway": null, "ref": null, "service": null, "shop": null, "source": null, "source:population": null, "sport": null, "surface": null, "tourism": null, "type": null, "website": null, "wheelchair": null, "width": null, "wikidata": null, "wikipedia": null, "classification": "Laboratorios" }, "geometry": { "type": "MultiPolygon", "coordinates": [ [ [ [ -94.5550525, 18.0059049 ], [ -94.5550539, 18.0057399 ], [ -94.5547896, 18.0057388 ], [ -94.5547898, 18.0059033 ], [ -94.5550525, 18.0059049 ] ] ] ] } },
{ "type": "Feature", "id": "node/13139673295", "properties": { "timestamp": "2025-09-12T18:31:44Z", "version": "1", "changeset": "171845725", "user": "AndresSM30", "uid": "23279192", "access": null, "addr:city": null, "addr:neighbourhood": null, "addr:postcode": null, "addr:state": null, "addr:street": null, "admin_level": null, "alt_name": null, "amenity": "research_institute", "architect": null, "bicycle": null, "boundary": null, "INEGI:MUNID": null, "brand": null, "brand:wikidata": null, "bridge": null, "building": null, "building:levels": null, "crossing": null, "crossing:markings": null, "fast_food": null, "foot": null, "footway": null, "grades": null, "height": null, "highway": null, "horse": null, "image": null, "incline": null, "internet_access": null, "internet_access:fee": null, "lanes": null, "layer": null, "leisure": null, "lit": null, "motor_vehicle": null, "name": "Edificio LIQP", "office": null, "official_name": null, "oneway": null, "opening_hours": null, "operator": null, "operator:type": null, "parking": null, "phone": null, "population": null, "population:date": null, "power": null, "railway": null, "ref": null, "service": null, "shop": null, "source": null, "source:population": null, "sport": null, "surface": null, "tourism": null, "type": null, "website": null, "wheelchair": null, "width": null, "wikidata": null, "wikipedia": null, "classification": "Laboratorios" }, "geometry": { "type": "Point", "coordinates": [ -94.5549459, 18.0058157 ] } },
{ "type": "Feature", "id": "way/1434402989", "properties": { "timestamp": "2025-09-30T15:53:11Z", "version": "1", "changeset": "172667502", "user": "TecNM campus Minatitlán", "uid": "23257776", "access": null, "addr:city": "Minatitlán", "addr:neighbourhood": null, "addr:postcode": "96848", "addr:state": "Ver", "addr:street": "Boulevard Instituto Tecnológico (Carretera Transístmica)", "admin_level": null, "alt_name": null, "amenity": null, "architect": null, "bicycle": null, "boundary": null, "INEGI:MUNID": null, "brand": null, "brand:wikidata": null, "bridge": null, "building": "college", "building:levels": "2", "crossing": null, "crossing:markings": null, "fast_food": null, "foot": null, "footway": null, "grades": null, "height": "8", "highway": null, "horse": null, "image": null, "incline": null, "internet_access": null, "internet_access:fee": null, "lanes": null, "layer": null, "leisure": null, "lit": null, "motor_vehicle": null, "name": "Edificio LISC", "office": null, "official_name": null, "oneway": null, "opening_hours": null, "operator": null, "operator:type": null, "parking": null, "phone": null, "population": null, "population:date": null, "power": null, "railway": null, "ref": null, "service": null, "shop": null, "source": null, "source:population": null, "sport": null, "surface": null, "tourism": null, "type": null, "website": null, "wheelchair": null, "width": null, "wikidata": null, "wikipedia": null, "classification": "Laboratorios" }, "geometry": { "type": "MultiPolygon", "coordinates": [ [ [ [ -94.557373, 18.0066005 ], [ -94.5576182, 18.0066023 ], [ -94.5576191, 18.0063664 ], [ -94.557373, 18.0063636 ], [ -94.557373, 18.0066005 ] ] ] ] } },
{ "type": "Feature", "id": "way/1434248973", "properties": { "timestamp": "2025-09-30T03:24:35Z", "version": "2", "changeset": "172639812", "user": "TecNM campus Minatitlán", "uid": "23257776", "access": null, "addr:city": "Minatitlán", "addr:neighbourhood": null, "addr:postcode": "96848", "addr:state": "Ver", "addr:street": "Avenida Tecnológico", "admin_level": null, "alt_name": null, "amenity": null, "architect": null, "bicycle": null, "boundary": null, "INEGI:MUNID": null, "brand": null, "brand:wikidata": null, "bridge": null, "building": "school", "building:levels": null, "crossing": null, "crossing:markings": null, "fast_food": null, "foot": null, "footway": null, "grades": null, "height": "3", "highway": null, "horse": null, "image": null, "incline": null, "internet_access": null, "internet_access:fee": null, "lanes": null, "layer": "1", "leisure": null, "lit": null, "motor_vehicle": null, "name": "Edificio LQG", "office": null, "official_name": null, "oneway": null, "opening_hours": null, "operator": null, "operator:type": null, "parking": null, "phone": null, "population": null, "population:date": null, "power": null, "railway": null, "ref": null, "service": null, "shop": null, "source": null, "source:population": null, "sport": null, "surface": null, "tourism": null, "type": null, "website": null, "wheelchair": null, "width": null, "wikidata": null, "wikipedia": null, "classification": "Aulas" }, "geometry": { "type": "MultiPolygon", "coordinates": [ [ [ [ -94.5563064, 18.0057811 ], [ -94.5563064, 18.0056536 ], [ -94.5562385, 18.0056535 ], [ -94.5558391, 18.0056532 ], [ -94.5558398, 18.0057803 ], [ -94.5563064, 18.0057811 ] ] ] ] } },
{ "type": "Feature", "id": "node/13139673282", "properties": { "timestamp": "2025-09-12T18:31:44Z", "version": "1", "changeset": "171845725", "user": "AndresSM30", "uid": "23279192", "access": null, "addr:city": null, "addr:neighbourhood": null, "addr:postcode": null, "addr:state": null, "addr:street": null, "admin_level": null, "alt_name": null, "amenity": "school", "architect": null, "bicycle": null, "boundary": null, "INEGI:MUNID": null, "brand": null, "brand:wikidata": null, "bridge": null, "building": null, "building:levels": null, "crossing": null, "crossing:markings": null, "fast_food": null, "foot": null, "footway": null, "grades": null, "height": null, "highway": null, "horse": null, "image": null, "incline": null, "internet_access": null, "internet_access:fee": null, "lanes": null, "layer": null, "leisure": null, "lit": null, "motor_vehicle": null, "name": "Edificio LQG", "office": null, "official_name": null, "oneway": null, "opening_hours": null, "operator": null, "operator:type": null, "parking": null, "phone": null, "population": null, "population:date": null, "power": null, "railway": null, "ref": null, "service": null, "shop": null, "source": null, "source:population": null, "sport": null, "surface": null, "tourism": null, "type": null, "website": null, "wheelchair": null, "width": null, "wikidata": null, "wikipedia": null, "classification": "Aulas" }, "geometry": { "type": "Point", "coordinates": [ -94.5560406, 18.0057126 ] } },
{ "type": "Feature", "id": "node/13139673272", "properties": { "timestamp": "2025-09-12T18:31:44Z", "version": "1", "changeset": "171845725", "user": "AndresSM30", "uid": "23279192", "access": null, "addr:city": null, "addr:neighbourhood": null, "addr:postcode": null, "addr:state": null, "addr:street": null, "admin_level": null, "alt_name": null, "amenity": "library", "architect": null, "bicycle": null, "boundary": null, "INEGI:MUNID": null, "brand": null, "brand:wikidata": null, "bridge": null, "building": null, "building:levels": null, "crossing": null, "crossing:markings": null, "fast_food": null, "foot": null, "footway": null, "grades": null, "height": null, "highway": null, "horse": null, "image": null, "incline": null, "internet_access": null, "internet_access:fee": null, "lanes": null, "layer": null, "leisure": null, "lit": null, "motor_vehicle": null, "name": "Edificio O", "office": null, "official_name": null, "oneway": null, "opening_hours": null, "operator": null, "operator:type": null, "parking": null, "phone": null, "population": null, "population:date": null, "power": null, "railway": null, "ref": null, "service": null, "shop": null, "source": null, "source:population": null, "sport": null, "surface": null, "tourism": null, "type": null, "website": null, "wheelchair": null, "width": null, "wikidata": null, "wikipedia": null, "classification": "Biblioteca" }, "geometry": { "type": "Point", "coordinates": [ -94.5566627, 18.0063285 ] } },
{ "type": "Feature", "id": "node/13139686801", "properties": { "timestamp": "2025-09-12T18:31:44Z", "version": "1", "changeset": "171845725", "user": "AndresSM30", "uid": "23279192", "access": null, "addr:city": null, "addr:neighbourhood": null, "addr:postcode": null, "addr:state": null, "addr:street": null, "admin_level": null, "alt_name": null, "amenity": "school", "architect": null, "bicycle": null, "boundary": null, "INEGI:MUNID": null, "brand": null, "brand:wikidata": null, "bridge": null, "building": null, "building:levels": null, "crossing": null, "crossing:markings": null, "fast_food": null, "foot": null, "footway": null, "grades": null, "height": null, "highway": null, "horse": null, "image": null, "incline": null, "internet_access": null, "internet_access:fee": null, "lanes": null, "layer": null, "leisure": null, "lit": null, "motor_vehicle": null, "name": "Edificio S.G", "office": null, "official_name": null, "oneway": null, "opening_hours": null, "operator": null, "operator:type": null, "parking": null, "phone": null, "population": null, "population:date": null, "power": null, "railway": null, "ref": null, "service": null, "shop": null, "source": null, "source:population": null, "sport": null, "surface": null, "tourism": null, "type": null, "website": null, "wheelchair": null, "width": null, "wikidata": null, "wikipedia": null, "classification": "Aulas" }, "geometry": { "type": "Point", "coordinates": [ -94.555679, 18.0065002 ] } },
{ "type": "Feature", "id": "node/13139673283", "properties": { "timestamp": "2025-09-12T18:31:44Z", "version": "1", "changeset": "171845725", "user": "AndresSM30", "uid": "23279192", "access": null, "addr:city": null, "addr:neighbourhood": null, "addr:postcode": null, "addr:state": null, "addr:street": null, "admin_level": null, "alt_name": null, "amenity": "research_institute", "architect": null, "bicycle": null, "boundary": null, "INEGI:MUNID": null, "brand": null, "brand:wikidata": null, "bridge": null, "building": null, "building:levels": null, "crossing": null, "crossing:markings": null, "fast_food": null, "foot": null, "footway": null, "grades": null, "height": null, "highway": null, "horse": null, "image": null, "incline": null, "internet_access": null, "internet_access:fee": null, "lanes": null, "layer": null, "leisure": null, "lit": null, "motor_vehicle": null, "name": "Edificio UVMA", "office": null, "official_name": null, "oneway": null, "opening_hours": null, "operator": null, "operator:type": null, "parking": null, "phone": null, "population": null, "population:date": null, "power": null, "railway": null, "ref": null, "service": null, "shop": null, "source": null, "source:population": null, "sport": null, "surface": null, "tourism": null, "type": null, "website": null, "wheelchair": null, "width": null, "wikidata": null, "wikipedia": null, "classification": "Laboratorios" }, "geometry": { "type": "Point", "coordinates": [ -94.5557874, 18.0059295 ] } },
{ "type": "Feature", "id": "node/13139673300", "properties": { "timestamp": "2025-09-12T18:31:44Z", "version": "1", "changeset": "171845725", "user": "AndresSM30", "uid": "23279192", "access": null, "addr:city": null, "addr:neighbourhood": null, "addr:postcode": null, "addr:state": null, "addr:street": null, "admin_level": null, "alt_name": null, "amenity": "school", "architect": null, "bicycle": null, "boundary": null, "INEGI:MUNID": null, "brand": null, "brand:wikidata": null, "bridge": null, "building": null, "building:levels": null, "crossing": null, "crossing:markings": null, "fast_food": null, "foot": null, "footway": null, "grades": null, "height": null, "highway": null, "horse": null, "image": null, "incline": null, "internet_access": null, "internet_access:fee": null, "lanes": null, "layer": null, "leisure": null, "lit": null, "motor_vehicle": null, "name": "Edificio V", "office": null, "official_name": null, "oneway": null, "opening_hours": null, "operator": null, "operator:type": null, "parking": null, "phone": null, "population": null, "population:date": null, "power": null, "railway": null, "ref": null, "service": null, "shop": null, "source": null, "source:population": null, "sport": null, "surface": null, "tourism": null, "type": null, "website": null, "wheelchair": null, "width": null, "wikidata": null, "wikipedia": null, "classification": "Aulas" }, "geometry": { "type": "Point", "coordinates": [ -94.5559496, 18.006511 ] } },
{ "type": "Feature", "id": "node/13139686802", "properties": { "timestamp": "2025-09-12T18:31:44Z", "version": "1", "changeset": "171845725", "user": "AndresSM30", "uid": "23279192", "access": null, "addr:city": null, "addr:neighbourhood": null, "addr:postcode": null, "addr:state": null, "addr:street": null, "admin_level": null, "alt_name": null, "amenity": "school", "architect": null, "bicycle": null, "boundary": null, "INEGI:MUNID": null, "brand": null, "brand:wikidata": null, "bridge": null, "building": null, "building:levels": null, "crossing": null, "crossing:markings": null, "fast_food": null, "foot": null, "footway": null, "grades": null, "height": null, "highway": null, "horse": null, "image": null, "incline": null, "internet_access": null, "internet_access:fee": null, "lanes": null, "layer": null, "leisure": null, "lit": null, "motor_vehicle": null, "name": "Edificio X", "office": null, "official_name": null, "oneway": null, "opening_hours": null, "operator": null, "operator:type": null, "parking": null, "phone": null, "population": null, "population:date": null, "power": null, "railway": null, "ref": null, "service": null, "shop": null, "source": null, "source:population": null, "sport": null, "surface": null, "tourism": null, "type": null, "website": null, "wheelchair": null, "width": null, "wikidata": null, "wikipedia": null, "classification": "Aulas" }, "geometry": { "type": "Point", "coordinates": [ -94.5546294, 18.0059472 ] } },
{ "type": "Feature", "id": "node/13139673275", "properties": { "timestamp": "2025-09-12T18:31:44Z", "version": "1", "changeset": "171845725", "user": "AndresSM30", "uid": "23279192", "access": null, "addr:city": null, "addr:neighbourhood": null, "addr:postcode": null, "addr:state": null, "addr:street": null, "admin_level": null, "alt_name": null, "amenity": "research_institute", "architect": null, "bicycle": null, "boundary": null, "INEGI:MUNID": null, "brand": null, "brand:wikidata": null, "bridge": null, "building": null, "building:levels": null, "crossing": null, "crossing:markings": null, "fast_food": null, "foot": null, "footway": null, "grades": null, "height": null, "highway": null, "horse": null, "image": null, "incline": null, "internet_access": null, "internet_access:fee": null, "lanes": null, "layer": null, "leisure": null, "lit": null, "motor_vehicle": null, "name": "Edificio de LII", "office": null, "official_name": null, "oneway": null, "opening_hours": null, "operator": null, "operator:type": null, "parking": null, "phone": null, "population": null, "population:date": null, "power": null, "railway": null, "ref": null, "service": null, "shop": null, "source": null, "source:population": null, "sport": null, "surface": null, "tourism": null, "type": null, "website": null, "wheelchair": null, "width": null, "wikidata": null, "wikipedia": null, "classification": "Laboratorios" }, "geometry": { "type": "Point", "coordinates": [ -94.5571032, 18.0056146 ] } },
{ "type": "Feature", "id": "node/13139673299", "properties": { "timestamp": "2025-09-12T18:31:44Z", "version": "1", "changeset": "171845725", "user": "AndresSM30", "uid": "23279192", "access": null, "addr:city": null, "addr:neighbourhood": null, "addr:postcode": null, "addr:state": null, "addr:street": null, "admin_level": null, "alt_name": null, "amenity": "cafe", "architect": null, "bicycle": null, "boundary": null, "INEGI:MUNID": null, "brand": null, "brand:wikidata": null, "bridge": null, "building": null, "building:levels": null, "crossing": null, "crossing:markings": null, "fast_food": null, "foot": null, "footway": null, "grades": null, "height": null, "highway": null, "horse": null, "image": null, "incline": null, "internet_access": null, "internet_access:fee": null, "lanes": null, "layer": null, "leisure": null, "lit": null, "motor_vehicle": null, "name": "Palapa", "office": null, "official_name": null, "oneway": null, "opening_hours": null, "operator": null, "operator:type": null, "parking": null, "phone": null, "population": null, "population:date": null, "power": null, "railway": null, "ref": null, "service": null, "shop": null, "source": null, "source:population": null, "sport": null, "surface": null, "tourism": null, "type": null, "website": null, "wheelchair": null, "width": null, "wikidata": null, "wikipedia": null, "classification": "Cafeterías" }, "geometry": { "type": "Point", "coordinates": [ -94.5560301, 18.0066074 ] } }
]
}
